{
    "links": {
        "self": "http://www.neowsapp.com/rest/v1/neo/3552776?api_key=iIulBulltgU6a56xZRHN4H3l9WmuAYTsLGpBGhQ2"
    },
    "id": "3552776",
    "neo_reference_id": "3552776",
    "name": "(2010 XA1)",
    "designation": "2010 XA1",
    "nasa_jpl_url": "http://ssd.jpl.nasa.gov/sbdb.cgi?sstr=3552776",
    "absolute_magnitude_h": 23.5,
    "estimated_diameter": {
        "kilometers": {
            "estimated_diameter_min": 0.0530340723,
            "estimated_diameter_max": 0.1185877909
        },
        "meters": {
            "estimated_diameter_min": 53.0340723319,
            "estimated_diameter_max": 118.5877908577
        },
        "miles": {
            "estimated_diameter_min": 0.0329538346,
            "estimated_diameter_max": 0.0736870142
        },
        "feet": {
            "estimated_diameter_min": 173.9963058693,
            "estimated_diameter_max": 389.0675677576
        }
    },
    "is_potentially_hazardous_asteroid": false,
    "close_approach_data": [
        {
            "close_approach_date": "2010-11-26",
            "close_approach_date_full": "2010-Nov-26 22:31",
            "epoch_date_close_approach": 1290810660000,
            "relative_velocity": {
                "kilometers_per_second": "3.7449729277",
                "kilometers_per_hour": "13481.9025395491",
                "miles_per_hour": "8377.1299418659"
            },
            "miss_distance": {
                "astronomical": "0.2634847576",
                "lunar": "102.4955707064",
                "kilometers": "39416758.514426312",
                "miles": "24492438.0114226256"
            },
            "orbiting_body": "Earth"
        }
    ],
    "orbital_data": {
        "orbit_id": "8",
        "orbit_determination_date": "2017-04-06 08:55:25",
        "first_observation_date": "2010-12-02",
        "last_observation_date": "2010-12-13",
        "data_arc_in_days": 11,
        "observations_used": 20,
        "orbit_uncertainty": "9",
        "minimum_orbit_intersection": ".262511",
        "jupiter_tisserand_invariant": "3.096",
        "epoch_osculation": "2455536.5",
        "eccentricity": ".5488601094074963",
        "semi_major_axis": "2.768702303650177",
        "inclination": "4.12725691045616",
        "ascending_node_longitude": "74.39360425977173",
        "orbital_period": "1682.723732705128",
        "perihelion_distance": "1.249072054351954",
        "perihelion_argument": "350.2529350632403",
        "aphelion_distance": "4.2883325529484",
        "perihelion_time": "2455526.442183081872",
        "mean_anomaly": "2.151757903066654",
        "mean_motion": ".213938861741296",
        "equinox": "J2000",
        "orbit_class": {
            "orbit_class_type": "AMO",
            "orbit_class_description": "Near-Earth asteroid orbits similar to that of 1221 Amor",
            "orbit_class_range": "1.017 AU < q (perihelion) < 1.3 AU"
        }
    },
    "is_sentry_object": false
}